satname,norad_id,inclination_deg,eccentricity,mean_motion_rev_per_day,perigee_km,apogee_km,l1,l2
STARLINK-1008,44714,53.0555,0.000137,15.06401157,546.259239635554,548.1567841688156,1 44714U 19074B   25357.20695885  .00001333  00000+0  10836-3 0  9996,2 44714  53.0555 169.9627 0001370  97.0247 263.0898 15.06401157337228
STARLINK-1012,44718,53.0536,0.0001342,15.06389049,546.3157350986849,548.1745076600628,1 44718U 19074F   25356.91945736 -.00001967  00000+0 -11325-3 0  9999,2 44718  53.0536 171.2490 0001342  88.4062 271.7081 15.06389049337172
STARLINK-1017,44723,53.0468,0.0006383,15.18229945,506.79265444549947,515.5875694366041,1 44723U 19074L   25357.72006557  .00040304  00000+0  19489-2 0  9998,2 44723  53.0468 160.3662 0006383 121.4645 238.6974 15.18229945337407
STARLINK-1019,44724,53.0506,0.0002874,15.58565916,389.86103828950036,393.75240193982154,1 44724U 19074M   25357.91668980  .00178047  00000+0  22400-2 0  9997,2 44724  53.0506 151.2151 0002874 246.8107 143.9832 15.58565916  6037
STARLINK-1020,44725,53.0538,0.0001299,15.06389428,546.3443527984518,548.1435667718033,1 44725U 19074N   25356.92130687  .00002013  00000+0  15406-3 0  9994,2 44725  53.0538 191.2455 0001299  88.0541 272.0597 15.06389428336899
STARLINK-1031,44736,53.0461,0.0002351,15.62386737,379.17592161255925,382.3539573044927,1 44736U 19074Z   25357.91668980  .00143688  00000+0  15697-2 0  9993,2 44736  53.0461 137.7763 0002351 113.6633  14.1265 15.62386737  5869
STARLINK-1036,44741,53.0538,0.0001445,15.06399128,546.2135172411699,548.2149437467824,1 44741U 19074AE  25357.81330318  .00001144  00000+0  95655-4 0  9993,2 44741  53.0538 187.2367 0001445  89.0570 271.0584 15.06399128337030
STARLINK-1039,44744,53.0484,0.0003672,15.15581358,516.6814637431471,521.7468784431976,1 44744U 19074AH  25356.86826257  .00015805  00000+0  83700-3 0  9998,2 44744  53.0484 206.4666 0003672  74.8816 285.2582 15.15581358336681
STARLINK-1042,44747,53.0455,0.0001395,15.45791805,428.1029001020506,430.0021059733972,1 44747U 19074AL  25357.71683159  .00020209  00000+0  41822-3 0  9991,2 44747  53.0455  98.1752 0001395 285.6965  74.3887 15.45791805338300
STARLINK-1043,44748,53.0518,0.0003286,15.45426714,427.88735126990287,432.36174075794406,1 44748U 19074AM  25356.86854073  .00086136  00000+0  17609-2 0  9998,2 44748  53.0518 203.1538 0003286 133.2745 226.8536 15.45426714336730
STARLINK-1046,44751,53.0544,0.0001442,15.06397795,546.219679717382,548.2169521905034,1 44751U 19074AQ  25356.87154365  .00000254  00000+0  35935-4 0  9991,2 44751  53.0544 211.4655 0001442  94.2329 265.8825 15.06397795336615
STARLINK-1047,44752,53.0714,0.0002188,15.30615939,472.47419002374954,475.4726735486993,1 44752U 19074AR  25357.80225179  .00012069  00000+0  41363-3 0  9996,2 44752  53.0714 139.9990 0002188  17.8237 342.2839 15.30615939337715
STARLINK-1048,44753,53.0539,0.0001218,15.06401914,546.362185070293,548.0491985500184,1 44753U 19074AS  25356.89734068  .00000739  00000+0  68469-4 0  9995,2 44753  53.0539 171.3496 0001218  90.4241 269.6887 15.06401914337171
STARLINK-1053,44758,53.0375,0.0001178,15.68818683,361.4845450625835,363.0725869699363,1 44758U 19074AX  25357.75067243  .00075327  00000+0  64412-3 0  9998,2 44758  53.0375 103.6433 0001178 262.5710  97.5172 15.68818683338215
STARLINK-1060,44765,53.0459,0.0004425,15.79880894,327.8091057404581,333.74649533893444,1 44765U 19074BE  25357.91668980  .00185962  00000+0  96802-3 0  9994,2 44765  53.0459 146.6432 0004425 200.1487 340.9992 15.79880894  5928
STARLINK-1063,44768,53.0536,0.0001631,15.06397518,546.0896393307494,548.348690511747,1 44768U 19074BH  25357.78935517  .00000842  00000+0  75393-4 0  9991,2 44768  53.0536 207.3496 0001631  87.0558 273.0618 15.06397518336765
STARLINK-1067,44771,53.056,0.0001358,15.22303602,497.9602462833727,499.8280479429295,1 44771U 19074BL  25357.91668980  .01063223  00000+0  42232-1 0  9993,2 44771  53.0560 206.2582 0001358  82.2607 218.0801 15.22303602  5695
STARLINK-1068,44772,53.0663,0.000134,15.38160507,450.6338205669854,452.46417641458083,1 44772U 19074BM  25357.91668980  .00440708  00000+0  10909-1 0  9996,2 44772  53.0663 184.7884 0001340 100.1147 284.8723 15.38160507  5747
STARLINK-1112,44925,53.0468,0.0009864,15.68237722,357.29275438397053,370.5935300885749,1 44925U 20001M   25357.91668980  .00128249  00000+0  11098-2 0  9992,2 44925  53.0468 264.0491 0009864  82.1458 103.3762 15.68237722  5856
STARLINK-1114,44927,53.0562,0.0001487,15.06400728,546.1795277252431,548.239125722811,1 44927U 20001P   25357.21064887  .00000065  00000+0  23280-4 0  9996,2 44927  53.0562 329.9454 0001487  93.9827 266.1332 15.06400728328327
STARLINK-1123,44930,53.0563,0.0001425,15.06395903,546.2372507228183,548.2109786405017,1 44930U 20001S   25357.62347602 -.00000095  00000+0  12509-4 0  9990,2 44930  53.0563 328.0926 0001425  86.7853 273.3299 15.06395903328383
STARLINK-1144,44933,53.0372,0.0002607,15.78217087,333.74189790014316,337.24238413426883,1 44933U 20001V   25357.91668980  .00124405  00000+0  70463-3 0  9993,2 44933  53.0372 237.7314 0002607 136.4349 241.4885 15.78217087  5965
STARLINK-1094,44941,53.0566,0.0001277,15.06406459,546.3073976213564,548.076126587197,1 44941U 20001AD  25357.83540584  .00002063  00000+0  15735-3 0  9998,2 44941  53.0566 307.1428 0001277  86.4609 273.6526 15.06406459328693
STARLINK-1122,44949,53.0574,0.0001572,15.06396285,546.1342773184379,548.3116104848013,1 44949U 20001AM  25357.19408209  .00003556  00000+0  25754-3 0  9992,2 44949  53.0574 310.0197 0001572 105.3315 254.7848 15.06396285328590
STARLINK-1080,44961,53.0554,0.0002084,15.17644856,511.5245621974673,514.3967717050518,1 44961U 20001AZ  25357.91668980  .01278124  00000+0  57999-1 0  9990,2 44961  53.0554 286.4887 0002084  78.7089  41.6590 15.17644856  5629
STARLINK-1090,44968,53.0561,0.0001719,15.06394441,546.0381251791587,548.4190658708994,1 44968U 20001BG  25357.52764317 -.00000062  00000+0  14759-4 0  9999,2 44968  53.0561 288.5220 0001719  81.8779 278.2405 15.06394441328938
STARLINK-1132,45044,53.0539,0.0001471,15.06419292,546.1337212924946,548.171141443202,1 45044U 20006A   25357.08901323  .00003751  00000+0  27042-3 0  9996,2 45044  53.0539 250.4952 0001471  78.7524 281.3630 15.06419292325199
STARLINK-1131,45047,53.0549,0.00016,15.06405728,546.0859495384875,548.3020554592877,1 45047U 20006D   25357.13146802  .00002738  00000+0  20262-3 0  9999,2 45047  53.0549 270.8445 0001600  89.8980 270.2192 15.06405728324917
STARLINK-1134,45048,53.0345,0.0005235,15.33309841,462.36246500320067,469.52821921538816,1 45048U 20006E   25356.91505147  .00063769  00000+0  19477-2 0  9992,2 45048  53.0345 240.5900 0005235  33.7079 326.4253 15.33309841325324
STARLINK-1156,45054,53.055,0.0001701,15.06393696,546.0528737815202,548.4088839339083,1 45054U 20006L   25357.50000499  .00000990  00000+0  85380-4 0  9990,2 45054  53.0550 268.6485 0001701  94.1341 265.9842 15.06393696324977
STARLINK-1159,45057,53.0514,0.0007342,15.58074588,388.2583442477044,398.20141937695644,1 45057U 20006P   25357.79486030  .00098293  00000+0  12741-2 0  9995,2 45057  53.0514 249.7920 0007342 101.6753 258.5083 15.58074588325274
STARLINK-1166,45060,53.056,0.000157,15.06390083,546.1546677862052,548.3292367772219,1 45060U 20006S   25357.06137073 -.00000660  00000+0 -25393-4 0  9991,2 45060  53.0560 270.6158 0001570  99.2610 260.8557 15.06390083324912
STARLINK-1169,45061,53.0549,0.0001584,15.06398558,546.1190015524862,548.3129533757465,1 45061U 20006T   25357.13508783  .00001779  00000+0  13830-3 0  9992,2 45061  53.0549 270.2892 0001584  87.6378 272.4793 15.06398558324925
STARLINK-1171,45062,53.0528,0.0014087,15.4131906,432.6074746542008,451.8231352381563,1 45062U 20006U   25357.21944930  .00072884  00000+0  17102-2 0  9990,2 45062  53.0528 256.1952 0014087  92.7887 267.4730 15.41319060325136
STARLINK-1133,45064,53.0527,0.0001422,15.06389983,546.2574698400913,548.2270477012862,1 45064U 20006W   25357.19958286 -.00005109  00000+0 -32443-3 0  9992,2 45064  53.0527 250.0002 0001422  86.9005 273.2146 15.06389983325219
STARLINK-1167,45071,53.0538,0.0001469,15.06396655,546.2044746913052,548.2391451096546,1 45071U 20006AD  25357.09270752  .00001806  00000+0  14013-3 0  9995,2 45071  53.0538 250.4754 0001469  87.8072 272.3085 15.06396655325195
STARLINK-1168,45072,53.0516,0.0001521,15.06393214,546.1790074499222,548.2857048080568,1 45072U 20006AE  25357.09639266  .00000435  00000+0  48123-4 0  9992,2 45072  53.0516 250.4562 0001521  74.9806 285.1352 15.06393214325197
STARLINK-1172,45074,53.0558,0.0001492,15.06385767,546.2219118635048,548.2884488901291,1 45074U 20006AG  25356.44399015 -.00001360  00000+0 -72417-4 0  9990,2 45074  53.0558 253.3895 0001492  92.8109 267.3051 15.06385767325099
STARLINK-1153,45080,53.0536,0.0001414,15.06392083,546.2565747921881,548.2150702263925,1 45080U 20006AN  25357.15167700 -.00000227  00000+0  36258-5 0  9994,2 45080  53.0536 250.2113 0001414  95.2923 264.8227 15.06392083325205
STARLINK-1151,45081,53.0692,0.0001221,15.40804516,442.90068518252156,444.5665859917317,1 45081U 20006AP  25357.91668980  .01113787  00000+0  24470-1 0  9990,2 45081  53.0692 244.4834 0001221  86.9750 324.0543 15.40804516  5780
STARLINK-1185,45087,53.0543,0.0002031,15.06396147,545.8168261630053,548.629907544022,1 45087U 20006AV  25357.04663089  .00000697  00000+0  65715-4 0  9999,2 45087  53.0543 230.6838 0002031  89.4008 270.7214 15.06396147325477
STARLINK-1183,45088,53.0548,0.0001593,15.0638136,546.1654703167105,548.3719045687294,1 45088U 20006AW  25356.93605557  .00003499  00000+0  25383-3 0  9992,2 45088  53.0548 231.1801 0001593 109.4646 250.6515 15.06381360325452
STARLINK-1142,45093,53.016,0.0008372,16.12293531,235.0178199727343,246.1001645421702,1 45093U 20006BB  25357.91550397  .02076757  41762-2  19612-2 0  9997,2 45093  53.0160 132.4573 0008372 293.8103  66.2053 16.12293531326926
